{
  "type": "FeatureCollection",
  "features": [
    {
      "type": "Feature",
      "properties": {
        "norad_id": 40938,
        "name": "BEIDOU-3S IGSO-2S (C56)",
        "group": "beidou",
        "lat": 46.891709183113456,
        "lon": -33.385971176729456,
        "alt_km": 35889.42274905013,
        "timestamp": "2025-12-23T09:49:07.348282+00:00",
        "meta_object_name": "BEIDOU-3S IGSO-2S (C56)",
        "meta_object_id": "2015-053A",
        "meta_epoch": "2025-12-22T18:37:28.318944",
        "meta_mean_motion": 1.00268056,
        "meta_eccentricity": 0.00606366,
        "meta_inclination": 49.495,
        "meta_ra_of_asc_node": 260.888,
        "meta_arg_of_pericenter": 188.7154,
        "meta_mean_anomaly": 17.1653,
        "meta_ephemeris_type": 0,
        "meta_classification_type": "U",
        "meta_norad_cat_id": 40938,
        "meta_element_set_no": 999,
        "meta_rev_at_epoch": 3758,
        "meta_bstar": 0,
        "meta_mean_motion_dot": -1.06e-06,
        "meta_mean_motion_ddot": 0,
        "tle_line1": "1 40938U 15053A   25356.77602221 -.00000106  00000+0  00000+0 0  9992",
        "tle_line2": "2 40938  49.4950 260.8880 0060636 188.7154  17.1653  1.00268056 37588"
      },
      "geometry": {
        "type": "Point",
        "coordinates": [
          -33.385971176729456,
          46.891709183113456
        ]
      }
    },
    {
      "type": "Feature",
      "properties": {
        "norad_id": 41434,
        "name": "BEIDOU-2 IGSO-6 (C13)",
        "group": "beidou",
        "lat": -52.39327426904933,
        "lon": -8.78772247889208,
        "alt_km": 35670.10620570413,
        "timestamp": "2025-12-23T09:49:07.348294+00:00",
        "meta_object_name": "BEIDOU-2 IGSO-6 (C13)",
        "meta_object_id": "2016-021A",
        "meta_epoch": "2025-12-18T14:33:38.837664",
        "meta_mean_motion": 1.00292299,
        "meta_eccentricity": 0.00610054,
        "meta_inclination": 59.9732,
        "meta_ra_of_asc_node": 39.8392,
        "meta_arg_of_pericenter": 230.2031,
        "meta_mean_anomaly": 129.1398,
        "meta_ephemeris_type": 0,
        "meta_classification_type": "U",
        "meta_norad_cat_id": 41434,
        "meta_element_set_no": 999,
        "meta_rev_at_epoch": 3566,
        "meta_bstar": 0,
        "meta_mean_motion_dot": -1.41e-06,
        "meta_mean_motion_ddot": 0,
        "tle_line1": "1 41434U 16021A   25352.60669951 -.00000141  00000+0  00000+0 0  9990",
        "tle_line2": "2 41434  59.9732  39.8392 0061005 230.2031 129.1398  1.00292299 35667"
      },
      "geometry": {
        "type": "Point",
        "coordinates": [
          -8.78772247889208,
          -52.39327426904933
        ]
      }
    },
    {
      "type": "Feature",
      "properties": {
        "norad_id": 41586,
        "name": "BEIDOU-2 G7 (C03)",
        "group": "beidou",
        "lat": -1.7519352340702037,
        "lon": -10.131438344308187,
        "alt_km": 35783.47125292174,
        "timestamp": "2025-12-23T09:49:07.348306+00:00",
        "meta_object_name": "BEIDOU-2 G7 (C03)",
        "meta_object_id": "2016-037A",
        "meta_epoch": "2025-12-19T15:57:04.317984",
        "meta_mean_motion": 1.00271972,
        "meta_eccentricity": 0.0005143,
        "meta_inclination": 1.7733,
        "meta_ra_of_asc_node": 67.8469,
        "meta_arg_of_pericenter": 2.9481,
        "meta_mean_anomaly": 7.4377,
        "meta_ephemeris_type": 0,
        "meta_classification_type": "U",
        "meta_norad_cat_id": 41586,
        "meta_element_set_no": 999,
        "meta_rev_at_epoch": 509,
        "meta_bstar": 0,
        "meta_mean_motion_dot": -3.3e-06,
        "meta_mean_motion_ddot": 0,
        "tle_line1": "1 41586U 16037A   25353.66463331 -.00000330  00000+0  00000+0 0  9996",
        "tle_line2": "2 41586   1.7733  67.8469 0005143   2.9481   7.4377  1.00271972  5095"
      },
      "geometry": {
        "type": "Point",
        "coordinates": [
          -10.131438344308187,
          -1.7519352340702037
        ]
      }
    },
    {
      "type": "Feature",
      "properties": {
        "norad_id": 43001,
        "name": "BEIDOU-3 M1 (C19)",
        "group": "beidou",
        "lat": -56.37125865091516,
        "lon": -27.841824965211288,
        "alt_km": 21512.307435696675,
        "timestamp": "2025-12-23T09:49:07.348318+00:00",
        "meta_object_name": "BEIDOU-3 M1 (C19)",
        "meta_object_id": "2017-069A",
        "meta_epoch": "2025-12-21T09:37:16.890816",
        "meta_mean_motion": 1.86231333,
        "meta_eccentricity": 0.00096297,
        "meta_inclination": 56.5338,
        "meta_ra_of_asc_node": 68.9479,
        "meta_arg_of_pericenter": 302.2645,
        "meta_mean_anomaly": 57.6886,
        "meta_ephemeris_type": 0,
        "meta_classification_type": "U",
        "meta_norad_cat_id": 43001,
        "meta_element_set_no": 999,
        "meta_rev_at_epoch": 5529,
        "meta_bstar": 0,
        "meta_mean_motion_dot": -3.5e-07,
        "meta_mean_motion_ddot": 0,
        "tle_line1": "1 43001U 17069A   25355.40088994 -.00000035  00000+0  00000+0 0  9990",
        "tle_line2": "2 43001  56.5338  68.9479 0009629 302.2645  57.6886  1.86231333 55292"
      },
      "geometry": {
        "type": "Point",
        "coordinates": [
          -27.841824965211288,
          -56.37125865091516
        ]
      }
    },
    {
      "type": "Feature",
      "properties": {
        "norad_id": 43002,
        "name": "BEIDOU-3 M2 (C20)",
        "group": "beidou",
        "lat": -41.343278539917016,
        "lon": 33.40248791655926,
        "alt_km": 21515.351622781487,
        "timestamp": "2025-12-23T09:49:07.348330+00:00",
        "meta_object_name": "BEIDOU-3 M2 (C20)",
        "meta_object_id": "2017-069B",
        "meta_epoch": "2025-12-22T09:54:58.962816",
        "meta_mean_motion": 1.86231087,
        "meta_eccentricity": 0.00067293,
        "meta_inclination": 56.5339,
        "meta_ra_of_asc_node": 68.9503,
        "meta_arg_of_pericenter": 327.7398,
        "meta_mean_anomaly": 32.2697,
        "meta_ephemeris_type": 0,
        "meta_classification_type": "U",
        "meta_norad_cat_id": 43002,
        "meta_element_set_no": 999,
        "meta_rev_at_epoch": 5530,
        "meta_bstar": 0,
        "meta_mean_motion_dot": -2.8e-07,
        "meta_mean_motion_ddot": 0,
        "tle_line1": "1 43002U 17069B   25356.41318244 -.00000028  00000+0  00000+0 0  9999",
        "tle_line2": "2 43002  56.5339  68.9503 0006729 327.7398  32.2697  1.86231087 55304"
      },
      "geometry": {
        "type": "Point",
        "coordinates": [
          33.40248791655926,
          -41.343278539917016
        ]
      }
    },
    {
      "type": "Feature",
      "properties": {
        "norad_id": 43107,
        "name": "BEIDOU-3 M7 (C27)",
        "group": "beidou",
        "lat": 44.711681747409315,
        "lon": 83.49858668775957,
        "alt_km": 21517.577200123862,
        "timestamp": "2025-12-23T09:49:07.348341+00:00",
        "meta_object_name": "BEIDOU-3 M7 (C27)",
        "meta_object_id": "2018-003A",
        "meta_epoch": "2025-12-22T03:44:43.463904",
        "meta_mean_motion": 1.86232634,
        "meta_eccentricity": 0.00029638,
        "meta_inclination": 54.4883,
        "meta_ra_of_asc_node": 308.4878,
        "meta_arg_of_pericenter": 66.6968,
        "meta_mean_anomaly": 293.333,
        "meta_ephemeris_type": 0,
        "meta_classification_type": "U",
        "meta_norad_cat_id": 43107,
        "meta_element_set_no": 999,
        "meta_rev_at_epoch": 5405,
        "meta_bstar": 0,
        "meta_mean_motion_dot": -5.9e-07,
        "meta_mean_motion_ddot": 0,
        "tle_line1": "1 43107U 18003A   25356.15605861 -.00000059  00000+0  00000+0 0  9993",
        "tle_line2": "2 43107  54.4883 308.4878 0002963  66.6968 293.3330  1.86232634 54050"
      },
      "geometry": {
        "type": "Point",
        "coordinates": [
          83.49858668775957,
          44.711681747409315
        ]
      }
    },
    {
      "type": "Feature",
      "properties": {
        "norad_id": 43108,
        "name": "BEIDOU-3 M8 (C28)",
        "group": "beidou",
        "lat": 18.58738255523453,
        "lon": 114.52300262132582,
        "alt_km": 21532.575078659935,
        "timestamp": "2025-12-23T09:49:07.348352+00:00",
        "meta_object_name": "BEIDOU-3 M8 (C28)",
        "meta_object_id": "2018-003B",
        "meta_epoch": "2025-12-22T02:25:29.511264",
        "meta_mean_motion": 1.86231112,
        "meta_eccentricity": 0.00045888,
        "meta_inclination": 54.4814,
        "meta_ra_of_asc_node": 308.4721,
        "meta_arg_of_pericenter": 278.5126,
        "meta_mean_anomaly": 81.4339,
        "meta_ephemeris_type": 0,
        "meta_classification_type": "U",
        "meta_norad_cat_id": 43108,
        "meta_element_set_no": 999,
        "meta_rev_at_epoch": 5406,
        "meta_bstar": 0,
        "meta_mean_motion_dot": -6e-07,
        "meta_mean_motion_ddot": 0,
        "tle_line1": "1 43108U 18003B   25356.10103601 -.00000060  00000+0  00000+0 0  9996",
        "tle_line2": "2 43108  54.4814 308.4721 0004588 278.5126  81.4339  1.86231112 54063"
      },
      "geometry": {
        "type": "Point",
        "coordinates": [
          114.52300262132582,
          18.58738255523453
        ]
      }
    }
  ]
}